QIANFAN-81              
1 63167U 25046J   26007.85540677  .00000231  00000+0  33813-3 0  9993
2 63167  88.9787 317.1716 0016571  48.6529 311.6045 13.51013100 51014
QIANFAN-82              
1 63168U 25046K   26007.81591889  .00000240  00000+0  35255-3 0  9993
2 63168  88.9788 317.2197 0014808  56.0397 304.2159 13.50985991 50992
QIANFAN-83              
1 63169U 25046L   26007.85302044  .00000287  00000+0  35587-3 0  9990
2 63169  88.9788 316.9410 0015863  41.6437 318.5925 13.61986850 51159
QIANFAN-84              
1 63170U 25046M   26007.84352021  .00000214  00000+0  31194-3 0  9991
2 63170  88.9787 317.3494 0017725  52.3957 307.8800 13.50995863 50921
QIANFAN-85              
1 63171U 25046N   26007.84046576 -.00000191  00000+0 -31407-3 0  9990
2 63171  88.9783 317.2216 0015101  54.7079 305.5482 13.50984982 50994
QIANFAN-86              
1 63172U 25046P   26007.84880019  .00000242  00000+0  35663-3 0  9992
2 63172  88.9789 317.0833 0013072  58.9448 301.2985 13.50986673 51075
QIANFAN-87              
1 63173U 25046Q   26007.82017293  .00000253  00000+0  37335-3 0  9997
2 63173  88.9785 317.1969 0013679  54.8632 305.3798 13.50984311 51003
QIANFAN-88              
1 63174U 25046R   26007.83638005  .00000231  00000+0  33826-3 0  9996
2 63174  88.9788 317.1504 0014148  61.6364 298.6212 13.50990632 51033
